{
  "norad_id": 62640,
  "name": "NUSAT-45 (UZMASAT-1)",
  "history": [
    {
      "epoch": "2026-03-28T17:46:19.983648Z",
      "apogee_km": 479.80086168224625,
      "perigee_km": 478.40925297913145,
      "latitude_deg": -2.5454130483780814e-05,
      "longitude_deg": 76.96212316180237,
      "height_km": 482.78297557373634,
      "semi_major_axis_km": 6857.242057330689,
      "eccentricity": 0.00010147,
      "inclination_deg": 97.3626,
      "raan_deg": 169.702,
      "arg_perigee_deg": 214.5149,
      "mean_anomaly_deg": 145.6025,
      "mean_motion_rev_day": 15.28898103
    },
    {
      "epoch": "2026-03-29T04:46:03.194112Z",
      "apogee_km": 479.7380834832229,
      "perigee_km": 478.3789873281057,
      "latitude_deg": 3.71851466106774e-06,
      "longitude_deg": -87.96588660087706,
      "height_km": 482.71536735055753,
      "semi_major_axis_km": 6857.1955354056645,
      "eccentricity": 9.91e-05,
      "inclination_deg": 97.3626,
      "raan_deg": 170.1556,
      "arg_perigee_deg": 215.6457,
      "mean_anomaly_deg": 144.4717,
      "mean_motion_rev_day": 15.28913662
    },
    {
      "epoch": "2026-03-30T04:19:43.224960Z",
      "apogee_km": 479.7863768408861,
      "perigee_km": 478.1694691420453,
      "latitude_deg": -6.080361794914055e-06,
      "longitude_deg": -81.37950072843947,
      "height_km": 482.7941256952096,
      "semi_major_axis_km": 6857.114922991465,
      "eccentricity": 0.0001179,
      "inclination_deg": 97.3627,
      "raan_deg": 171.1264,
      "arg_perigee_deg": 208.341,
      "mean_anomaly_deg": 151.7766,
      "mean_motion_rev_day": 15.28940623
    }
  ]
}